{"fetched_at":"2026-03-30T06:02:59Z","count":15439,"tles":[{"name":"STARLINK-1596","line1":"1 46141U 20057AA  26087.42783386  .00081067  00000+0  15382-2 0  9996","line2":"2 46141  53.0414 141.3729 0001598 347.6248  12.4720 15.47625479310177","category":"Starlink"}]}